start=new Date('2022-04-03T00:00:00.000Z').valueOf();
sats=[{"EPHEMERIS_TYPE":"0","MEAN_MOTION":"15.08847184","DECAY_DATE":null,"ECCENTRICITY":"0.00018420","SEMIMAJOR_AXIS":"6917.858","OBJECT_ID":"2021-125Q","TLE_LINE1":"1 50170U 21125Q   22092.91668981 -.00041624  00000-0 -26118-2 0  9996","OBJECT_NAME":"STARLINK-3245","PERIAPSIS":"538.449","PERIOD":"95.437","REV_AT_EPOCH":"361","TLE_LINE2":"2 50170  53.2147 219.0453 0001842  44.9473 104.0010 15.08847184  3619","RCS_SIZE":"LARGE","BSTAR":"-0.00261180000000","MEAN_ELEMENT_THEORY":"SGP4","TIME_SYSTEM":"UTC","MEAN_MOTION_DDOT":"0.0000000000000","NORAD_CAT_ID":"50170","EPOCH":"2022-04-02T22:00:01.999584","MEAN_MOTION_DOT":"-0.00041624","ELEMENT_SET_NO":"999","COUNTRY_CODE":"US","INCLINATION":"53.2147","LAUNCH_DATE":"2021-12-18","OBJECT_TYPE":"PAYLOAD","ARG_OF_PERICENTER":"44.9473","SITE":"AFWTR","MEAN_ANOMALY":"104.0010","REF_FRAME":"TEME","APOAPSIS":"540.998","CLASSIFICATION_TYPE":"U","RA_OF_ASC_NODE":"219.0453","GP_ID":"200325522","FILE":"3385473","CENTER_NAME":"EARTH"},{"TIME_SYSTEM":"UTC","MEAN_MOTION_DDOT":"0.0000000000000","MEAN_ELEMENT_THEORY":"SGP4","RCS_SIZE":"LARGE","BSTAR":"-0.00546980000000","TLE_LINE2":"2 50171  53.2153 219.0459 0001824  48.8631  20.0826 15.08867162  3612","REV_AT_EPOCH":"361","TLE_LINE1":"1 50171U 21125R   22092.91668981 -.00086363  00000-0 -54698-2 0  9990","OBJECT_ID":"2021-125R","PERIOD":"95.436","PERIAPSIS":"538.401","OBJECT_NAME":"STARLINK-3286","EPHEMERIS_TYPE":"0","MEAN_MOTION":"15.08867162","SEMIMAJOR_AXIS":"6917.797","ECCENTRICITY":"0.00018240","DECAY_DATE":null,"CENTER_NAME":"EARTH","FILE":"3385473","GP_ID":"200325272","MEAN_ANOMALY":"20.0826","REF_FRAME":"TEME","SITE":"AFWTR","RA_OF_ASC_NODE":"219.0459","CLASSIFICATION_TYPE":"U","APOAPSIS":"540.924","ARG_OF_PERICENTER":"48.8631","OBJECT_TYPE":"PAYLOAD","MEAN_MOTION_DOT":"-0.00086363","EPOCH":"2022-04-02T22:00:01.999584","NORAD_CAT_ID":"50171","LAUNCH_DATE":"2021-12-18","INCLINATION":"53.2153","COUNTRY_CODE":"US","ELEMENT_SET_NO":"999"},{"MEAN_MOTION_DOT":"-0.00140192","EPOCH":"2022-04-02T22:00:01.999584","NORAD_CAT_ID":"50172","LAUNCH_DATE":"2021-12-18","COUNTRY_CODE":"US","INCLINATION":"53.2166","ELEMENT_SET_NO":"999","ARG_OF_PERICENTER":"30.0950","OBJECT_TYPE":"PAYLOAD","MEAN_ANOMALY":"158.9574","REF_FRAME":"TEME","SITE":"AFWTR","RA_OF_ASC_NODE":"219.0461","CLASSIFICATION_TYPE":"U","APOAPSIS":"541.000","CENTER_NAME":"EARTH","FILE":"3385473","GP_ID":"200324521","MEAN_MOTION":"15.08896432","EPHEMERIS_TYPE":"0","SEMIMAJOR_AXIS":"6917.708","ECCENTRICITY":"0.00020630","DECAY_DATE":null,"TLE_LINE1":"1 50172U 21125S   22092.91668981 -.00140192  00000-0 -89501-2 0  9993","OBJECT_ID":"2021-125S","PERIOD":"95.434","PERIAPSIS":"538.146","OBJECT_NAME":"STARLINK-3287","RCS_SIZE":"LARGE","BSTAR":"-0.00895010000000","MEAN_ELEMENT_THEORY":"SGP4","TLE_LINE2":"2 50172  53.2166 219.0461 0002063  30.0950 158.9574 15.08896432  3616","REV_AT_EPOCH":"361","TIME_SYSTEM":"UTC","MEAN_MOTION_DDOT":"0.0000000000000"},{"DECAY_DATE":null,"ECCENTRICITY":"0.00051590","SEMIMAJOR_AXIS":"6839.501","MEAN_MOTION":"15.34850596","EPHEMERIS_TYPE":"0","OBJECT_NAME":"STARLINK-3289","PERIAPSIS":"457.838","PERIOD":"93.820","OBJECT_ID":"2021-125T","TLE_LINE1":"1 50173U 21125T   22092.91668981 -.00305761  00000-0 -92695-2 0  9997","REV_AT_EPOCH":"1669","TLE_LINE2":"2 50173  53.2172 212.7552 0005159 273.6561 313.5246 15.34850596 16694","RCS_SIZE":"LARGE","MEAN_ELEMENT_THEORY":"SGP4","BSTAR":"-0.00926950000000","MEAN_MOTION_DDOT":"0.0000000000000","TIME_SYSTEM":"UTC","ELEMENT_SET_NO":"999","INCLINATION":"53.2172","COUNTRY_CODE":"US","LAUNCH_DATE":"2021-12-18","NORAD_CAT_ID":"50173","EPOCH":"2022-04-02T22:00:01.999584","MEAN_MOTION_DOT":"-0.00305761","OBJECT_TYPE":"PAYLOAD","ARG_OF_PERICENTER":"273.6561","APOAPSIS":"464.895","CLASSIFICATION_TYPE":"U","RA_OF_ASC_NODE":"212.7552","SITE":"AFWTR","REF_FRAME":"TEME","MEAN_ANOMALY":"313.5246","FILE":"3385318","GP_ID":"200300918","CENTER_NAME":"EARTH"},{"TLE_LINE2":"2 50174  53.2186 219.0344 0001978  40.1655 208.7730 15.08857615  3616","RCS_SIZE":"LARGE","MEAN_ELEMENT_THEORY":"SGP4","BSTAR":"-0.00418160000000","REV_AT_EPOCH":"361","MEAN_MOTION_DDOT":"0.0000000000000","TIME_SYSTEM":"UTC","SEMIMAJOR_AXIS":"6917.827","DECAY_DATE":null,"ECCENTRICITY":"0.00019780","MEAN_MOTION":"15.08857615","EPHEMERIS_TYPE":"0","OBJECT_NAME":"STARLINK-3292","PERIAPSIS":"538.323","PERIOD":"95.436","TLE_LINE1":"1 50174U 21125U   22092.91668981 -.00066260  00000-0 -41816-2 0  9995","OBJECT_ID":"2021-125U","CLASSIFICATION_TYPE":"U","RA_OF_ASC_NODE":"219.0344","APOAPSIS":"541.060","REF_FRAME":"TEME","MEAN_ANOMALY":"208.7730","SITE":"AFWTR","CENTER_NAME":"EARTH","GP_ID":"200325022","FILE":"3385473","LAUNCH_DATE":"2021-12-18","ELEMENT_SET_NO":"999","INCLINATION":"53.2186","COUNTRY_CODE":"US","EPOCH":"2022-04-02T22:00:01.999584","MEAN_MOTION_DOT":"-0.00066260","NORAD_CAT_ID":"50174","ARG_OF_PERICENTER":"40.1655","OBJECT_TYPE":"PAYLOAD"},{"EPHEMERIS_TYPE":"0","MEAN_MOTION":"15.08867749","SEMIMAJOR_AXIS":"6917.796","DECAY_DATE":null,"ECCENTRICITY":"0.00018290","TLE_LINE1":"1 50175U 21125V   22092.91668981 -.00083054  00000-0 -52570-2 0  9995","OBJECT_ID":"2021-125V","OBJECT_NAME":"STARLINK-3291","PERIAPSIS":"538.395","PERIOD":"95.436","TLE_LINE2":"2 50175  53.2139 219.0445 0001829  48.4549  80.4896 15.08867749  3612","BSTAR":"-0.00525700000000","RCS_SIZE":"LARGE","MEAN_ELEMENT_THEORY":"SGP4","REV_AT_EPOCH":"361","TIME_SYSTEM":"UTC","MEAN_MOTION_DDOT":"0.0000000000000","EPOCH":"2022-04-02T22:00:01.999584","MEAN_MOTION_DOT":"-0.00083054","NORAD_CAT_ID":"50175","LAUNCH_DATE":"2021-12-18","ELEMENT_SET_NO":"999","COUNTRY_CODE":"US","INCLINATION":"53.2139","ARG_OF_PERICENTER":"48.4549","OBJECT_TYPE":"PAYLOAD","REF_FRAME":"TEME","MEAN_ANOMALY":"80.4896","SITE":"AFWTR","CLASSIFICATION_TYPE":"U","RA_OF_ASC_NODE":"219.0445","APOAPSIS":"540.926","CENTER_NAME":"EARTH","FILE":"3385473","GP_ID":"200325773"},{"LAUNCH_DATE":"2021-12-18","ELEMENT_SET_NO":"999","COUNTRY_CODE":"US","INCLINATION":"53.2187","EPOCH":"2022-04-02T22:00:01.999584","MEAN_MOTION_DOT":"-0.00062481","NORAD_CAT_ID":"50176","ARG_OF_PERICENTER":"31.6445","OBJECT_TYPE":"PAYLOAD","CLASSIFICATION_TYPE":"U","RA_OF_ASC_NODE":"219.0345","APOAPSIS":"541.231","MEAN_ANOMALY":"197.3146","REF_FRAME":"TEME","SITE":"AFWTR","CENTER_NAME":"EARTH","GP_ID":"200300923","FILE":"3385327","SEMIMAJOR_AXIS":"6917.851","DECAY_DATE":null,"ECCENTRICITY":"0.00021890","MEAN_MOTION":"15.08849461","EPHEMERIS_TYPE":"0","OBJECT_NAME":"STARLINK-3293","PERIOD":"95.437","PERIAPSIS":"538.202","TLE_LINE1":"1 50176U 21125W   22092.91668981 -.00062481  00000-0 -39408-2 0  9992","OBJECT_ID":"2021-125W","TLE_LINE2":"2 50176  53.2187 219.0345 0002189  31.6445 197.3146 15.08849461 16604","MEAN_ELEMENT_THEORY":"SGP4","RCS_SIZE":"LARGE","BSTAR":"-0.00394080000000","REV_AT_EPOCH":"1660","MEAN_MOTION_DDOT":"0.0000000000000","TIME_SYSTEM":"UTC"},{"MEAN_MOTION_DDOT":"0.0000000000000","TIME_SYSTEM":"UTC","REV_AT_EPOCH":"358","RCS_SIZE":"LARGE","MEAN_ELEMENT_THEORY":"SGP4","BSTAR":"-0.00525750000000","TLE_LINE2":"2 50177  53.2165 219.0462 0002122  36.9334 131.9687 15.08862228  3586","PERIAPSIS":"538.209","PERIOD":"95.436","OBJECT_NAME":"STARLINK-3282","OBJECT_ID":"2021-125X","TLE_LINE1":"1 50177U 21125X   22092.91668981 -.00083051  00000-0 -52575-2 0  9999","ECCENTRICITY":"0.00021220","DECAY_DATE":null,"SEMIMAJOR_AXIS":"6917.812","EPHEMERIS_TYPE":"0","MEAN_MOTION":"15.08862228","GP_ID":"200324271","FILE":"3385473","CENTER_NAME":"EARTH","APOAPSIS":"541.145","RA_OF_ASC_NODE":"219.0462","CLASSIFICATION_TYPE":"U","SITE":"AFWTR","MEAN_ANOMALY":"131.9687","REF_FRAME":"TEME","OBJECT_TYPE":"PAYLOAD","ARG_OF_PERICENTER":"36.9334","COUNTRY_CODE":"US","INCLINATION":"53.2165","ELEMENT_SET_NO":"999","LAUNCH_DATE":"2021-12-18","NORAD_CAT_ID":"50177","MEAN_MOTION_DOT":"-0.00083051","EPOCH":"2022-04-02T22:00:01.999584"},{"REV_AT_EPOCH":"357","TLE_LINE2":"2 50178  53.2153 219.0467 0001790  43.9563 344.9836 15.08853161  3578","BSTAR":"-0.00475100000000","RCS_SIZE":"LARGE","MEAN_ELEMENT_THEORY":"SGP4","MEAN_MOTION_DDOT":"0.0000000000000","TIME_SYSTEM":"UTC","DECAY_DATE":null,"ECCENTRICITY":"0.00017900","SEMIMAJOR_AXIS":"6917.840","MEAN_MOTION":"15.08853161","EPHEMERIS_TYPE":"0","OBJECT_NAME":"STARLINK-3284","PERIOD":"95.437","PERIAPSIS":"538.467","OBJECT_ID":"2021-125Y","TLE_LINE1":"1 50178U 21125Y   22092.91668981 -.00075140  00000-0 -47510-2 0  9993","APOAPSIS":"540.943","CLASSIFICATION_TYPE":"U","RA_OF_ASC_NODE":"219.0467","SITE":"AFWTR","MEAN_ANOMALY":"344.9836","REF_FRAME":"TEME","GP_ID":"200325523","FILE":"3385473","CENTER_NAME":"EARTH","ELEMENT_SET_NO":"999","COUNTRY_CODE":"US","INCLINATION":"53.2153","LAUNCH_DATE":"2021-12-18","NORAD_CAT_ID":"50178","EPOCH":"2022-04-02T22:00:01.999584","MEAN_MOTION_DOT":"-0.00075140","OBJECT_TYPE":"PAYLOAD","ARG_OF_PERICENTER":"43.9563"},{"EPOCH":"2022-04-02T22:00:01.999584","MEAN_MOTION_DOT":"-0.00054009","NORAD_CAT_ID":"50179","LAUNCH_DATE":"2021-12-18","ELEMENT_SET_NO":"999","COUNTRY_CODE":"US","INCLINATION":"53.2182","ARG_OF_PERICENTER":"35.4173","OBJECT_TYPE":"PAYLOAD","REF_FRAME":"TEME","MEAN_ANOMALY":"173.4899","SITE":"AFWTR","CLASSIFICATION_TYPE":"U","RA_OF_ASC_NODE":"219.0341","APOAPSIS":"541.128","CENTER_NAME":"EARTH","FILE":"3385473","GP_ID":"200325273","MEAN_MOTION":"15.08841922","EPHEMERIS_TYPE":"0","SEMIMAJOR_AXIS":"6917.875","DECAY_DATE":null,"ECCENTRICITY":"0.00020070","TLE_LINE1":"1 50179U 21125Z   22092.91668981 -.00054009  00000-0 -34007-2 0  9992","OBJECT_ID":"2021-125Z","OBJECT_NAME":"STARLINK-3283","PERIAPSIS":"538.351","PERIOD":"95.437","TLE_LINE2":"2 50179  53.2182 219.0341 0002007  35.4173 173.4899 15.08841922  3573","BSTAR":"-0.00340070000000","RCS_SIZE":"LARGE","MEAN_ELEMENT_THEORY":"SGP4","REV_AT_EPOCH":"357","TIME_SYSTEM":"UTC","MEAN_MOTION_DDOT":"0.0000000000000"}];
